{
  "type": "FeatureCollection",
  "features": [
    {
      "type": "Feature",
      "properties": {
        "norad_id": 66411,
        "name": "ZK-1A R/B",
        "group": "last-30-days",
        "lat": 4.895545343751923,
        "lon": 48.48994380442561,
        "alt_km": 597.3754122723021,
        "timestamp": "2025-12-07T18:50:15.512942+00:00",
        "meta_object_name": "ZK-1A R/B",
        "meta_object_id": "2025-256C",
        "meta_epoch": "2025-12-07T04:25:25.846752",
        "meta_mean_motion": 15.01785762,
        "meta_eccentricity": 0.02288938,
        "meta_inclination": 98.3231,
        "meta_ra_of_asc_node": 48.564,
        "meta_arg_of_pericenter": 263.5392,
        "meta_mean_anomaly": 93.9725,
        "meta_ephemeris_type": 0,
        "meta_classification_type": "U",
        "meta_norad_cat_id": 66411,
        "meta_element_set_no": 999,
        "meta_rev_at_epoch": 421,
        "meta_bstar": 0.00091204585,
        "meta_mean_motion_dot": 0.00021001,
        "meta_mean_motion_ddot": 0,
        "tle_line1": "1 66411U 25256C   25341.18432693  .00021001  00000+0  91205-3 0  9992",
        "tle_line2": "2 66411  98.3231  48.5640 0228893 263.5392  93.9725 15.01785762  4219"
      },
      "geometry": {
        "type": "Point",
        "coordinates": [
          48.48994380442561,
          4.895545343751923
        ]
      }
    },
    {
      "type": "Feature",
      "properties": {
        "norad_id": 66412,
        "name": "HULIANWANG DIGUI 13A",
        "group": "last-30-days",
        "lat": -42.784772643852136,
        "lon": -128.12196491565493,
        "alt_km": 820.1489676661786,
        "timestamp": "2025-12-07T18:50:15.512954+00:00",
        "meta_object_name": "HULIANWANG DIGUI 13A",
        "meta_object_id": "2025-258A",
        "meta_epoch": "2025-12-07T07:19:03.505152",
        "meta_mean_motion": 14.21250084,
        "meta_eccentricity": 0.00096275,
        "meta_inclination": 50.0043,
        "meta_ra_of_asc_node": 284.8754,
        "meta_arg_of_pericenter": 337.5879,
        "meta_mean_anomaly": 22.4612,
        "meta_ephemeris_type": 0,
        "meta_classification_type": "U",
        "meta_norad_cat_id": 66412,
        "meta_element_set_no": 999,
        "meta_rev_at_epoch": 388,
        "meta_bstar": 0.00033085322,
        "meta_mean_motion_dot": 5.67e-06,
        "meta_mean_motion_ddot": 0,
        "tle_line1": "1 66412U 25258A   25341.30490168  .00000567  00000+0  33085-3 0  9996",
        "tle_line2": "2 66412  50.0043 284.8754 0009627 337.5879  22.4612 14.21250084  3880"
      },
      "geometry": {
        "type": "Point",
        "coordinates": [
          -128.12196491565493,
          -42.784772643852136
        ]
      }
    },
    {
      "type": "Feature",
      "properties": {
        "norad_id": 66413,
        "name": "HULIANWANG DIGUI 13B",
        "group": "last-30-days",
        "lat": -46.75646984211954,
        "lon": 166.15584979345417,
        "alt_km": 827.2532906300221,
        "timestamp": "2025-12-07T18:50:15.512965+00:00",
        "meta_object_name": "HULIANWANG DIGUI 13B",
        "meta_object_id": "2025-258B",
        "meta_epoch": "2025-12-07T05:50:16.367136",
        "meta_mean_motion": 14.20619145,
        "meta_eccentricity": 0.0008598,
        "meta_inclination": 50.0006,
        "meta_ra_of_asc_node": 285.2053,
        "meta_arg_of_pericenter": 336.8166,
        "meta_mean_anomaly": 23.2357,
        "meta_ephemeris_type": 0,
        "meta_classification_type": "U",
        "meta_norad_cat_id": 66413,
        "meta_element_set_no": 999,
        "meta_rev_at_epoch": 387,
        "meta_bstar": 0.00037447659,
        "meta_mean_motion_dot": 6.53e-06,
        "meta_mean_motion_ddot": 0,
        "tle_line1": "1 66413U 25258B   25341.24324499  .00000653  00000+0  37448-3 0  9996",
        "tle_line2": "2 66413  50.0006 285.2053 0008598 336.8166  23.2357 14.20619145  3874"
      },
      "geometry": {
        "type": "Point",
        "coordinates": [
          166.15584979345417,
          -46.75646984211954
        ]
      }
    },
    {
      "type": "Feature",
      "properties": {
        "norad_id": 66414,
        "name": "HULIANWANG DIGUI 13C",
        "group": "last-30-days",
        "lat": -49.986832791722506,
        "lon": -167.34553789021638,
        "alt_km": 824.7939615890682,
        "timestamp": "2025-12-07T18:50:15.512975+00:00",
        "meta_object_name": "HULIANWANG DIGUI 13C",
        "meta_object_id": "2025-258C",
        "meta_epoch": "2025-12-07T07:26:37.425696",
        "meta_mean_motion": 14.20776676,
        "meta_eccentricity": 0.00091234,
        "meta_inclination": 50.0051,
        "meta_ra_of_asc_node": 284.9075,
        "meta_arg_of_pericenter": 336.8193,
        "meta_mean_anomaly": 23.2306,
        "meta_ephemeris_type": 0,
        "meta_classification_type": "U",
        "meta_norad_cat_id": 66414,
        "meta_element_set_no": 999,
        "meta_rev_at_epoch": 388,
        "meta_bstar": 0.00037132255,
        "meta_mean_motion_dot": 6.49e-06,
        "meta_mean_motion_ddot": 0,
        "tle_line1": "1 66414U 25258C   25341.31015539  .00000649  00000+0  37132-3 0  9992",
        "tle_line2": "2 66414  50.0051 284.9075 0009123 336.8193  23.2306 14.20776676  3888"
      },
      "geometry": {
        "type": "Point",
        "coordinates": [
          -167.34553789021638,
          -49.986832791722506
        ]
      }
    },
    {
      "type": "Feature",
      "properties": {
        "norad_id": 66415,
        "name": "HULIANWANG DIGUI 13D",
        "group": "last-30-days",
        "lat": -37.93834579742621,
        "lon": -118.03067895738509,
        "alt_km": 819.2889351499234,
        "timestamp": "2025-12-07T18:50:15.512988+00:00",
        "meta_object_name": "HULIANWANG DIGUI 13D",
        "meta_object_id": "2025-258D",
        "meta_epoch": "2025-12-07T07:16:36.200928",
        "meta_mean_motion": 14.21453615,
        "meta_eccentricity": 0.00091538,
        "meta_inclination": 50.0046,
        "meta_ra_of_asc_node": 284.8666,
        "meta_arg_of_pericenter": 343.9806,
        "meta_mean_anomaly": 16.0815,
        "meta_ephemeris_type": 0,
        "meta_classification_type": "U",
        "meta_norad_cat_id": 66415,
        "meta_element_set_no": 999,
        "meta_rev_at_epoch": 388,
        "meta_bstar": 0.00031699862,
        "meta_mean_motion_dot": 5.39e-06,
        "meta_mean_motion_ddot": 0,
        "tle_line1": "1 66415U 25258D   25341.30319677  .00000539  00000+0  31700-3 0  9995",
        "tle_line2": "2 66415  50.0046 284.8666 0009153 343.9806  16.0815 14.21453615  3882"
      },
      "geometry": {
        "type": "Point",
        "coordinates": [
          -118.03067895738509,
          -37.93834579742621
        ]
      }
    },
    {
      "type": "Feature",
      "properties": {
        "norad_id": 66416,
        "name": "HULIANWANG DIGUI 13E",
        "group": "last-30-days",
        "lat": -48.42168626249397,
        "lon": -148.23581474397406,
        "alt_km": 820.6174364247317,
        "timestamp": "2025-12-07T18:50:15.512998+00:00",
        "meta_object_name": "HULIANWANG DIGUI 13E",
        "meta_object_id": "2025-258E",
        "meta_epoch": "2025-12-06T06:05:20.650272",
        "meta_mean_motion": 14.21759879,
        "meta_eccentricity": 0.00106116,
        "meta_inclination": 50.0051,
        "meta_ra_of_asc_node": 289.3198,
        "meta_arg_of_pericenter": 342.4117,
        "meta_mean_anomaly": 17.6426,
        "meta_ephemeris_type": 0,
        "meta_classification_type": "U",
        "meta_norad_cat_id": 66416,
        "meta_element_set_no": 999,
        "meta_rev_at_epoch": 373,
        "meta_bstar": 0.00040565133,
        "meta_mean_motion_dot": 7.4e-06,
        "meta_mean_motion_ddot": 0,
        "tle_line1": "1 66416U 25258E   25340.25371123  .00000740  00000+0  40565-3 0  9996",
        "tle_line2": "2 66416  50.0051 289.3198 0010611 342.4117  17.6426 14.21759879  3739"
      },
      "geometry": {
        "type": "Point",
        "coordinates": [
          -148.23581474397406,
          -48.42168626249397
        ]
      }
    },
    {
      "type": "Feature",
      "properties": {
        "norad_id": 66417,
        "name": "HULIANWANG DIGUI 13F",
        "group": "last-30-days",
        "lat": -45.588170098143216,
        "lon": -136.1327918474589,
        "alt_km": 818.8386925815084,
        "timestamp": "2025-12-07T18:50:15.513010+00:00",
        "meta_object_name": "HULIANWANG DIGUI 13F",
        "meta_object_id": "2025-258F",
        "meta_epoch": "2025-12-06T14:29:09.906432",
        "meta_mean_motion": 14.21933133,
        "meta_eccentricity": 0.00102248,
        "meta_inclination": 50.0001,
        "meta_ra_of_asc_node": 287.8136,
        "meta_arg_of_pericenter": 341.4358,
        "meta_mean_anomaly": 18.618,
        "meta_ephemeris_type": 0,
        "meta_classification_type": "U",
        "meta_norad_cat_id": 66417,
        "meta_element_set_no": 999,
        "meta_rev_at_epoch": 378,
        "meta_bstar": 0.00035322897,
        "meta_mean_motion_dot": 6.26e-06,
        "meta_mean_motion_ddot": 0,
        "tle_line1": "1 66417U 25258F   25340.60358688  .00000626  00000+0  35323-3 0  9996",
        "tle_line2": "2 66417  50.0001 287.8136 0010224 341.4358  18.6180 14.21933133  3786"
      },
      "geometry": {
        "type": "Point",
        "coordinates": [
          -136.1327918474589,
          -45.588170098143216
        ]
      }
    }
  ]
}